SENTINEL-1D             
1 66315U 25251A   25321.83983961  .00000340  00000+0  81324-4 0  9994
2 66315  98.1941 327.1846 0000526 301.1231  58.9917 14.59505192  1900
QPS-SAR-14 (YACHIHOKO-I)
1 66316U 25252A   25321.79145389  .00007452  00000+0  64563-3 0  9991
2 66316  42.0042 212.1029 0008795 337.8864  22.1580 14.97350982  1794
ELECTRON R/B            
1 66317U 25252B   25321.74279426  .00637386  13200-3  14689-2 0  9995
2 66317  41.9959 205.5420 0202129 319.3491  39.2421 15.69724954  1864
ELECTRON KICK STAGE R/B 
1 66318U 25252C   25321.71979056  .00882279  76128-5  16692-2 0  9998
2 66318  41.9861 205.3735 0185326 109.5243 252.5727 15.75865513  1860
STARLINK-35442          
1 66319U 25253A   25321.83337963 -.01623925  00000+0 -87279-2 0  9991
2 66319  42.9961 131.8821 0001520 278.5451 294.8485 15.82282165  3027
STARLINK-34616          
1 66320U 25253B   25321.83337963 -.01635909  00000+0 -87984-2 0  9991
2 66320  42.9956 131.8763 0001426 282.4524 292.8881 15.82292285  3132
STARLINK-34615          
1 66321U 25253C   25321.83337963 -.01637316  00000+0 -88286-2 0  9992
2 66321  42.9957 131.8706 0001505 280.0479 297.7458 15.82240054  2974
STARLINK-35292          
1 66322U 25253D   25321.25001157 -.01754067  00000+0 -87322-2 0  9995
2 66322  42.9961 135.4198 0001629 274.0489 226.4064 15.84131012  2838
STARLINK-35309          
1 66323U 25253E   25321.83337963 -.01766198  00000+0 -96083-2 0  9999
2 66323  42.9957 131.8264 0001527 275.5756 320.0794 15.81789699  2926
STARLINK-35506          
1 66324U 25253F   25321.83337963 -.01701387  00000+0 -93704-2 0  9996
2 66324  42.9957 131.8483 0001382 275.7165 310.8948 15.81922893  3020
STARLINK-35504          
1 66325U 25253G   25321.83337963 -.01751599  00000+0 -94997-2 0  9992
2 66325  42.9959 131.8371 0001503 278.2986 313.0370 15.81831429  2929
STARLINK-35479          
1 66326U 25253H   25321.83337963 -.01773788  00000+0 -96541-2 0  9994
2 66326  42.9955 131.8205 0001516 275.4118 322.2380 15.81792262  3028
