CCSDS_OMM_VERS = 2.0
CREATION_DATE  = 
ORIGINATOR     = 

OBJECT_NAME    = SENTINEL-1D
OBJECT_ID      = 2025-251A
CENTER_NAME    = EARTH
REF_FRAME      = TEME
TIME_SYSTEM    = UTC
MEAN_ELEMENT_THEORY = SGP/SGP4

EPOCH          = 2025-11-17T20:09:22.142304
MEAN_MOTION    = 14.59505192
ECCENTRICITY   = .0000526
INCLINATION    = 98.1941
RA_OF_ASC_NODE = 327.1846
ARG_OF_PERICENTER = 301.1231
MEAN_ANOMALY   = 58.9917

EPHEMERIS_TYPE = 0
CLASSIFICATION_TYPE = U
NORAD_CAT_ID   = 66315
ELEMENT_SET_NO = 999
REV_AT_EPOCH   = 190
BSTAR          = .81324E-4
MEAN_MOTION_DOT = .34E-5
MEAN_MOTION_DDOT = 0

CCSDS_OMM_VERS = 2.0
CREATION_DATE  = 
ORIGINATOR     = 

OBJECT_NAME    = QPS-SAR-14 (YACHIHOKO-I)
OBJECT_ID      = 2025-252A
CENTER_NAME    = EARTH
REF_FRAME      = TEME
TIME_SYSTEM    = UTC
MEAN_ELEMENT_THEORY = SGP/SGP4

EPOCH          = 2025-11-17T18:59:41.616096
MEAN_MOTION    = 14.97350982
ECCENTRICITY   = .0008795
INCLINATION    = 42.0042
RA_OF_ASC_NODE = 212.1029
ARG_OF_PERICENTER = 337.8864
MEAN_ANOMALY   = 22.1580

EPHEMERIS_TYPE = 0
CLASSIFICATION_TYPE = U
NORAD_CAT_ID   = 66316
ELEMENT_SET_NO = 999
REV_AT_EPOCH   = 179
BSTAR          = .64563E-3
MEAN_MOTION_DOT = .7452E-4
MEAN_MOTION_DDOT = 0

CCSDS_OMM_VERS = 2.0
CREATION_DATE  = 
ORIGINATOR     = 

OBJECT_NAME    = ELECTRON R/B
OBJECT_ID      = 2025-252B
CENTER_NAME    = EARTH
REF_FRAME      = TEME
TIME_SYSTEM    = UTC
MEAN_ELEMENT_THEORY = SGP/SGP4

EPOCH          = 2025-11-17T17:49:37.424064
MEAN_MOTION    = 15.69724954
ECCENTRICITY   = .0202129
INCLINATION    = 41.9959
RA_OF_ASC_NODE = 205.5420
ARG_OF_PERICENTER = 319.3491
MEAN_ANOMALY   = 39.2421

EPHEMERIS_TYPE = 0
CLASSIFICATION_TYPE = U
NORAD_CAT_ID   = 66317
ELEMENT_SET_NO = 999
REV_AT_EPOCH   = 186
BSTAR          = .14689E-2
MEAN_MOTION_DOT = .637386E-2
MEAN_MOTION_DDOT = .132E-3

CCSDS_OMM_VERS = 2.0
CREATION_DATE  = 
ORIGINATOR     = 

OBJECT_NAME    = ELECTRON KICK STAGE R/B
OBJECT_ID      = 2025-252C
CENTER_NAME    = EARTH
REF_FRAME      = TEME
TIME_SYSTEM    = UTC
MEAN_ELEMENT_THEORY = SGP/SGP4

EPOCH          = 2025-11-17T17:16:29.904384
MEAN_MOTION    = 15.75865513
ECCENTRICITY   = .0185326
INCLINATION    = 41.9861
RA_OF_ASC_NODE = 205.3735
ARG_OF_PERICENTER = 109.5243
MEAN_ANOMALY   = 252.5727

EPHEMERIS_TYPE = 0
CLASSIFICATION_TYPE = U
NORAD_CAT_ID   = 66318
ELEMENT_SET_NO = 999
REV_AT_EPOCH   = 186
BSTAR          = .16692E-2
MEAN_MOTION_DOT = .882279E-2
MEAN_MOTION_DDOT = .76128E-5

CCSDS_OMM_VERS = 2.0
CREATION_DATE  = 
ORIGINATOR     = 

OBJECT_NAME    = STARLINK-35442
OBJECT_ID      = 2025-253A
CENTER_NAME    = EARTH
REF_FRAME      = TEME
TIME_SYSTEM    = UTC
MEAN_ELEMENT_THEORY = SGP/SGP4

EPOCH          = 2025-11-17T20:00:04.000032
MEAN_MOTION    = 15.82282165
ECCENTRICITY   = .000152
INCLINATION    = 42.9961
RA_OF_ASC_NODE = 131.8821
ARG_OF_PERICENTER = 278.5451
MEAN_ANOMALY   = 294.8485

EPHEMERIS_TYPE = 0
CLASSIFICATION_TYPE = U
NORAD_CAT_ID   = 66319
ELEMENT_SET_NO = 999
REV_AT_EPOCH   = 302
BSTAR          = -.87279E-2
MEAN_MOTION_DOT = -.1623925E-1
MEAN_MOTION_DDOT = 0

CCSDS_OMM_VERS = 2.0
CREATION_DATE  = 
ORIGINATOR     = 

OBJECT_NAME    = STARLINK-34616
OBJECT_ID      = 2025-253B
CENTER_NAME    = EARTH
REF_FRAME      = TEME
TIME_SYSTEM    = UTC
MEAN_ELEMENT_THEORY = SGP/SGP4

EPOCH          = 2025-11-17T20:00:04.000032
MEAN_MOTION    = 15.82292285
ECCENTRICITY   = .0001426
INCLINATION    = 42.9956
RA_OF_ASC_NODE = 131.8763
ARG_OF_PERICENTER = 282.4524
MEAN_ANOMALY   = 292.8881

EPHEMERIS_TYPE = 0
CLASSIFICATION_TYPE = U
NORAD_CAT_ID   = 66320
ELEMENT_SET_NO = 999
REV_AT_EPOCH   = 313
BSTAR          = -.87984E-2
MEAN_MOTION_DOT = -.1635909E-1
MEAN_MOTION_DDOT = 0

CCSDS_OMM_VERS = 2.0
CREATION_DATE  = 
ORIGINATOR     = 

OBJECT_NAME    = STARLINK-34615
OBJECT_ID      = 2025-253C
CENTER_NAME    = EARTH
REF_FRAME      = TEME
TIME_SYSTEM    = UTC
MEAN_ELEMENT_THEORY = SGP/SGP4

EPOCH          = 2025-11-17T20:00:04.000032
MEAN_MOTION    = 15.82240054
ECCENTRICITY   = .0001505
INCLINATION    = 42.9957
RA_OF_ASC_NODE = 131.8706
ARG_OF_PERICENTER = 280.0479
MEAN_ANOMALY   = 297.7458

EPHEMERIS_TYPE = 0
CLASSIFICATION_TYPE = U
NORAD_CAT_ID   = 66321
ELEMENT_SET_NO = 999
REV_AT_EPOCH   = 297
BSTAR          = -.88286E-2
MEAN_MOTION_DOT = -.1637316E-1
MEAN_MOTION_DDOT = 0

CCSDS_OMM_VERS = 2.0
CREATION_DATE  = 
ORIGINATOR     = 

OBJECT_NAME    = STARLINK-35292
OBJECT_ID      = 2025-253D
CENTER_NAME    = EARTH
REF_FRAME      = TEME
TIME_SYSTEM    = UTC
MEAN_ELEMENT_THEORY = SGP/SGP4

EPOCH          = 2025-11-17T06:00:00.999648
MEAN_MOTION    = 15.84131012
ECCENTRICITY   = .00016299
INCLINATION    = 42.9961
RA_OF_ASC_NODE = 135.4198
ARG_OF_PERICENTER = 274.0489
MEAN_ANOMALY   = 226.4064

EPHEMERIS_TYPE = 0
CLASSIFICATION_TYPE = U
NORAD_CAT_ID   = 66322
ELEMENT_SET_NO = 999
REV_AT_EPOCH   = 283
BSTAR          = -.87322478E-2
MEAN_MOTION_DOT = -.1754067E-1
MEAN_MOTION_DDOT = 0

CCSDS_OMM_VERS = 2.0
CREATION_DATE  = 
ORIGINATOR     = 

OBJECT_NAME    = STARLINK-35309
OBJECT_ID      = 2025-253E
CENTER_NAME    = EARTH
REF_FRAME      = TEME
TIME_SYSTEM    = UTC
MEAN_ELEMENT_THEORY = SGP/SGP4

EPOCH          = 2025-11-17T20:00:04.000032
MEAN_MOTION    = 15.81789699
ECCENTRICITY   = .0001527
INCLINATION    = 42.9957
RA_OF_ASC_NODE = 131.8264
ARG_OF_PERICENTER = 275.5756
MEAN_ANOMALY   = 320.0794

EPHEMERIS_TYPE = 0
CLASSIFICATION_TYPE = U
NORAD_CAT_ID   = 66323
ELEMENT_SET_NO = 999
REV_AT_EPOCH   = 292
BSTAR          = -.96083E-2
MEAN_MOTION_DOT = -.1766198E-1
MEAN_MOTION_DDOT = 0

CCSDS_OMM_VERS = 2.0
CREATION_DATE  = 
ORIGINATOR     = 

OBJECT_NAME    = STARLINK-35506
OBJECT_ID      = 2025-253F
CENTER_NAME    = EARTH
REF_FRAME      = TEME
TIME_SYSTEM    = UTC
MEAN_ELEMENT_THEORY = SGP/SGP4

EPOCH          = 2025-11-17T20:00:04.000032
MEAN_MOTION    = 15.81922893
ECCENTRICITY   = .0001382
INCLINATION    = 42.9957
RA_OF_ASC_NODE = 131.8483
ARG_OF_PERICENTER = 275.7165
MEAN_ANOMALY   = 310.8948

EPHEMERIS_TYPE = 0
CLASSIFICATION_TYPE = U
NORAD_CAT_ID   = 66324
ELEMENT_SET_NO = 999
REV_AT_EPOCH   = 302
BSTAR          = -.93704E-2
MEAN_MOTION_DOT = -.1701387E-1
MEAN_MOTION_DDOT = 0

CCSDS_OMM_VERS = 2.0
CREATION_DATE  = 
ORIGINATOR     = 

OBJECT_NAME    = STARLINK-35504
OBJECT_ID      = 2025-253G
CENTER_NAME    = EARTH
REF_FRAME      = TEME
TIME_SYSTEM    = UTC
MEAN_ELEMENT_THEORY = SGP/SGP4

EPOCH          = 2025-11-17T20:00:04.000032
MEAN_MOTION    = 15.81831429
ECCENTRICITY   = .0001503
INCLINATION    = 42.9959
RA_OF_ASC_NODE = 131.8371
ARG_OF_PERICENTER = 278.2986
MEAN_ANOMALY   = 313.0370

EPHEMERIS_TYPE = 0
CLASSIFICATION_TYPE = U
NORAD_CAT_ID   = 66325
ELEMENT_SET_NO = 999
REV_AT_EPOCH   = 292
BSTAR          = -.94997E-2
MEAN_MOTION_DOT = -.1751599E-1
MEAN_MOTION_DDOT = 0

CCSDS_OMM_VERS = 2.0
CREATION_DATE  = 
ORIGINATOR     = 

OBJECT_NAME    = STARLINK-35479
OBJECT_ID      = 2025-253H
CENTER_NAME    = EARTH
REF_FRAME      = TEME
TIME_SYSTEM    = UTC
MEAN_ELEMENT_THEORY = SGP/SGP4

EPOCH          = 2025-11-17T20:00:04.000032
MEAN_MOTION    = 15.81792262
ECCENTRICITY   = .0001516
INCLINATION    = 42.9955
RA_OF_ASC_NODE = 131.8205
ARG_OF_PERICENTER = 275.4118
MEAN_ANOMALY   = 322.2380

EPHEMERIS_TYPE = 0
CLASSIFICATION_TYPE = U
NORAD_CAT_ID   = 66326
ELEMENT_SET_NO = 999
REV_AT_EPOCH   = 302
BSTAR          = -.96541E-2
MEAN_MOTION_DOT = -.1773788E-1
MEAN_MOTION_DDOT = 0

